[{"OBJECT_NAME":"SCD 2","OBJECT_ID":"1998-060A","EPOCH":"2026-03-09T01:42:33.915168","MEAN_MOTION":14.45482756,"ECCENTRICITY":0.00168978,"INCLINATION":24.9965,"RA_OF_ASC_NODE":329.5569,"ARG_OF_PERICENTER":144.656,"MEAN_ANOMALY":345.4076,"EPHEMERIS_TYPE":0,"CLASSIFICATION_TYPE":"U","NORAD_CAT_ID":25504,"ELEMENT_SET_NO":999,"REV_AT_EPOCH":44582,"BSTAR":9.618387e-5,"MEAN_MOTION_DOT":5.27e-6,"MEAN_MOTION_DDOT":0},{"OBJECT_NAME":"FENGYUN 1C DEB","OBJECT_ID":"1999-025BHR","EPOCH":"2026-02-24T21:35:26.092320","MEAN_MOTION":14.3228195,"ECCENTRICITY":0.0055586,"INCLINATION":98.9764,"RA_OF_ASC_NODE":291.089,"ARG_OF_PERICENTER":37.185,"MEAN_ANOMALY":323.3162,"EPHEMERIS_TYPE":0,"CLASSIFICATION_TYPE":"U","NORAD_CAT_ID":31163,"ELEMENT_SET_NO":999,"REV_AT_EPOCH":65803,"BSTAR":0.00040572,"MEAN_MOTION_DOT":1.067e-5,"MEAN_MOTION_DDOT":0}]
